<?xml version="1.0" encoding="UTF-8"?>
<kml xmlns="http://www.opengis.net/kml/2.2"><Document>
<name>SnowEx UAVSAR flight lines</name>
<Folder><name>Grand Mesa (pre-SnowEx 2015), CO</name>
<Placemark><name>Grand Mesa (pre-SnowEx 2015) 081° (08112)</name><description>State: CO | Campaign: GrMesa | Line: 08112 | 1 acquisitions: 2015-04-28</description><Style><LineStyle><color>ff0000ff</color><width>2</width></LineStyle><PolyStyle><color>7f0000ff</color></PolyStyle></Style><Polygon><outerBoundaryIs><LinearRing><coordinates>-107.42114856,39.09390504,0 -107.46754116,39.2761974,0 -108.40678296,39.15457656,0 -108.35589,38.96150556,0 -107.42114856,39.09390504,0</coordinates></LinearRing></outerBoundaryIs></Polygon></Placemark>
<Placemark><name>Grand Mesa (pre-SnowEx 2015) 261° (26108)</name><description>State: CO | Campaign: GrMesa | Line: 26108 | 1 acquisitions: 2015-04-28</description><Style><LineStyle><color>ff0000ff</color><width>2</width></LineStyle><PolyStyle><color>7f0000ff</color></PolyStyle></Style><Polygon><outerBoundaryIs><LinearRing><coordinates>-107.5172118,39.11362884,0 -107.54954772,39.30242172,0 -108.43961892,39.20219148,0 -108.40556064,39.0067314,0 -107.5172118,39.11362884,0</coordinates></LinearRing></outerBoundaryIs></Polygon></Placemark>
</Folder>
<Folder><name>SMAP cal/val (Sierra Nevada crossing), CA</name>
<Placemark><name>SMAP cal/val (Sierra Nevada crossing) 135° (13500)</name><description>State: CA | Campaign: SMAP13 | Line: 13500 | 3 acquisitions: 2014-01-17, 2014-02-11, 2014-04-01</description><Style><LineStyle><color>ffffff00</color><width>2</width></LineStyle><PolyStyle><color>7fffff00</color></PolyStyle></Style><Polygon><outerBoundaryIs><LinearRing><coordinates>-118.89139944,37.65351204,0 -119.84342004,38.41568412,0 -120.04271376,38.24311476,0 -119.07824772,37.52794644,0 -118.89139944,37.65351204,0</coordinates></LinearRing></outerBoundaryIs></Polygon></Placemark>
<Placemark><name>SMAP cal/val (Sierra Nevada crossing) 330° (33006)</name><description>State: CA | Campaign: SMAP13 | Line: 33006 | 3 acquisitions: 2014-01-16, 2014-02-11, 2014-04-01</description><Style><LineStyle><color>ffffff00</color><width>2</width></LineStyle><PolyStyle><color>7fffff00</color></PolyStyle></Style><Polygon><outerBoundaryIs><LinearRing><coordinates>-120.58731288,38.12754996,0 -120.92317308,38.59580964,0 -121.1394126,38.48291172,0 -120.7988298,38.01843012,0 -120.58731288,38.12754996,0</coordinates></LinearRing></outerBoundaryIs></Polygon></Placemark>
<Placemark><name>SMAP cal/val (Sierra Nevada crossing) 330° (33010)</name><description>State: CA | Campaign: SMAP13 | Line: 33010 | 1 acquisitions: 2015-01-06</description><Style><LineStyle><color>ffffff00</color><width>2</width></LineStyle><PolyStyle><color>7fffff00</color></PolyStyle></Style><Polygon><outerBoundaryIs><LinearRing><coordinates>-120.64681764,38.0930472,0 -120.98378904,38.55958452,0 -121.20280656,38.45824308,0 -120.86183484,37.99376148,0 -120.64681764,38.0930472,0</coordinates></LinearRing></outerBoundaryIs></Polygon></Placemark>
</Folder>
<Folder><name>Slumgullion Landslide (Lake City), CO</name>
<Placemark><name>Slumgullion Landslide (Lake City) 035° (03501)</name><description>State: CO | Campaign: Slumgl | Line: 03501 | 6 acquisitions: 2014-04-01, 2014-04-04, 2015-04-28, 2016-03-28, 2016-04-01, 2016-04-08</description><Style><LineStyle><color>ff0000ff</color><width>2</width></LineStyle><PolyStyle><color>7f0000ff</color></PolyStyle></Style><Polygon><outerBoundaryIs><LinearRing><coordinates>-107.26258032,37.77902208,0 -106.99150308,38.0833242,0 -107.1941304,38.1861102,0 -107.46548544,37.8813636,0 -107.26258032,37.77902208,0</coordinates></LinearRing></outerBoundaryIs></Polygon></Placemark>
<Placemark><name>Slumgullion Landslide (Lake City) 125° (12502)</name><description>State: CO | Campaign: Slumgl | Line: 12502 | 10 acquisitions: 2014-04-01, 2014-04-04, 2015-04-28, 2016-04-01, 2016-04-08, 2017-02-06, 2017-02-22, 2017-02-25, 2017-03-08, 2017-03-31</description><Style><LineStyle><color>ff0000ff</color><width>2</width></LineStyle><PolyStyle><color>7f0000ff</color></PolyStyle></Style><Polygon><outerBoundaryIs><LinearRing><coordinates>-107.15484948,37.77752196,0 -106.99700352,37.94181288,0 -107.38436784,38.154441,0 -107.52454572,38.0060958,0 -107.15484948,37.77752196,0</coordinates></LinearRing></outerBoundaryIs></Polygon></Placemark>
<Placemark><name>Slumgullion Landslide (Lake City) 215° (21501)</name><description>State: CO | Campaign: Slumgl | Line: 21501 | 5 acquisitions: 2014-04-01, 2014-04-04, 2015-04-28, 2016-04-01, 2016-04-08</description><Style><LineStyle><color>ff0000ff</color><width>2</width></LineStyle><PolyStyle><color>7f0000ff</color></PolyStyle></Style><Polygon><outerBoundaryIs><LinearRing><coordinates>-107.33964204,37.77224376,0 -107.06934264,38.07737928,0 -107.27035872,38.19022164,0 -107.5188786,37.87697436,0 -107.33964204,37.77224376,0</coordinates></LinearRing></outerBoundaryIs></Polygon></Placemark>
<Placemark><name>Slumgullion Landslide (Lake City) 305° (30502)</name><description>State: CO | Campaign: Slumgl | Line: 30502 | 6 acquisitions: 2014-04-01, 2014-04-04, 2015-04-28, 2016-03-28, 2016-04-01, 2016-04-08</description><Style><LineStyle><color>ff0000ff</color><width>2</width></LineStyle><PolyStyle><color>7f0000ff</color></PolyStyle></Style><Polygon><outerBoundaryIs><LinearRing><coordinates>-107.13812592,37.85363916,0 -107.0135604,38.00976276,0 -107.38897932,38.23616976,0 -107.52510132,38.06576724,0 -107.13812592,37.85363916,0</coordinates></LinearRing></outerBoundaryIs></Polygon></Placemark>
</Folder>
<Folder><name>Jemez River (Los Alamos), NM</name>
<Placemark><name>Jemez River (Los Alamos) 359° (35915)</name><description>State: NM | Campaign: alamos | Line: 35915 | 3 acquisitions: 2020-02-12, 2020-02-19, 2020-02-26</description><Style><LineStyle><color>ffff00ff</color><width>2</width></LineStyle><PolyStyle><color>7fff00ff</color></PolyStyle></Style><Polygon><outerBoundaryIs><LinearRing><coordinates>-106.551024,35.710077,0 -106.314984,35.71376,0 -106.323474,36.097971,0 -106.560657,36.094266,0 -106.551024,35.710077,0</coordinates></LinearRing></outerBoundaryIs></Polygon></Placemark>
</Folder>
<Folder><name>Sagehen Creek (Donner), CA</name>
<Placemark><name>Sagehen Creek (Donner) 039° (03904)</name><description>State: CA | Campaign: donner | Line: 03904 | 6 acquisitions: 2019-12-20, 2020-01-31, 2020-02-12, 2020-02-19, 2020-02-26, 2020-03-11</description><Style><LineStyle><color>ffffff00</color><width>2</width></LineStyle><PolyStyle><color>7fffff00</color></PolyStyle></Style><Polygon><outerBoundaryIs><LinearRing><coordinates>-120.675003,39.18093,0 -120.479588,39.05884,0 -120.111595,39.413391,0 -120.30736,39.536089,0 -120.675003,39.18093,0</coordinates></LinearRing></outerBoundaryIs></Polygon></Placemark>
</Folder>
<Folder><name>American River Basin (Eldorado NF), CA</name>
<Placemark><name>American River Basin (Eldorado NF) 340° (34017)</name><description>State: CA | Campaign: dorado | Line: 34017 | 5 acquisitions: 2020-01-31, 2020-02-12, 2020-02-19, 2020-02-26, 2020-03-11</description><Style><LineStyle><color>ffffff00</color><width>2</width></LineStyle><PolyStyle><color>7fffff00</color></PolyStyle></Style><Polygon><outerBoundaryIs><LinearRing><coordinates>-120.182108,38.630279,0 -119.968895,38.690384,0 -120.418375,39.659452,0 -120.634139,39.598521,0 -120.182108,38.630279,0</coordinates></LinearRing></outerBoundaryIs></Polygon></Placemark>
</Folder>
<Folder><name>Fraser Experimental Forest, CO</name>
<Placemark><name>Fraser Experimental Forest 052° (05209)</name><description>State: CO | Campaign: fraser | Line: 05209 | 13 acquisitions: 2020-02-12, 2020-02-19, 2020-02-26, 2020-03-12, 2021-01-15, 2021-01-20, 2021-01-27, 2021-02-03, 2021-02-23, 2021-03-03, 2021-03-10, 2021-03-16, 2021-03-22</description><Style><LineStyle><color>ff0000ff</color><width>2</width></LineStyle><PolyStyle><color>7f0000ff</color></PolyStyle></Style><Polygon><outerBoundaryIs><LinearRing><coordinates>-106.018102,39.888453,0 -105.886609,39.760119,0 -105.413764,40.04584,0 -105.544922,40.174702,0 -106.018102,39.888453,0</coordinates></LinearRing></outerBoundaryIs></Polygon></Placemark>
<Placemark><name>Fraser Experimental Forest 233° (23306)</name><description>State: CO | Campaign: fraser | Line: 23306 | 6 acquisitions: 2021-01-27, 2021-02-03, 2021-03-03, 2021-03-10, 2021-03-16, 2021-03-22</description><Style><LineStyle><color>ff0000ff</color><width>2</width></LineStyle><PolyStyle><color>7f0000ff</color></PolyStyle></Style><Polygon><outerBoundaryIs><LinearRing><coordinates>-106.169069,39.792808,0 -106.026056,39.646444,0 -105.425158,39.993055,0 -105.567604,40.140154,0 -106.169069,39.792808,0</coordinates></LinearRing></outerBoundaryIs></Polygon></Placemark>
<Placemark><name>Fraser Experimental Forest 233° (23307)</name><description>State: CO | Campaign: fraser | Line: 23307 | 5 acquisitions: 2020-02-01, 2020-02-12, 2020-02-19, 2020-02-26, 2020-03-12</description><Style><LineStyle><color>ff0000ff</color><width>2</width></LineStyle><PolyStyle><color>7f0000ff</color></PolyStyle></Style><Polygon><outerBoundaryIs><LinearRing><coordinates>-106.087526,39.917531,0 -105.946075,39.772785,0 -105.468279,40.047949,0 -105.609282,40.193273,0 -106.087526,39.917531,0</coordinates></LinearRing></outerBoundaryIs></Polygon></Placemark>
</Folder>
<Folder><name>Grand Mesa, CO</name>
<Placemark><name>Grand Mesa 078° (07805)</name><description>State: CO | Campaign: grmesa | Line: 07805 | 5 acquisitions: 2017-02-06, 2017-02-22, 2017-02-25, 2017-03-08, 2017-03-31</description><Style><LineStyle><color>ff0000ff</color><width>2</width></LineStyle><PolyStyle><color>7f0000ff</color></PolyStyle></Style><Polygon><outerBoundaryIs><LinearRing><coordinates>-108.49357,38.909582,0 -107.569014,39.093126,0 -107.61689,39.27041,0 -108.549964,39.108813,0 -108.49357,38.909582,0</coordinates></LinearRing></outerBoundaryIs></Polygon></Placemark>
<Placemark><name>Grand Mesa 080° (08006)</name><description>State: CO | Campaign: grmesa | Line: 08006 | 5 acquisitions: 2017-02-06, 2017-02-22, 2017-02-25, 2017-03-08, 2017-03-31</description><Style><LineStyle><color>ff0000ff</color><width>2</width></LineStyle><PolyStyle><color>7f0000ff</color></PolyStyle></Style><Polygon><outerBoundaryIs><LinearRing><coordinates>-108.421837,38.908311,0 -107.593805,39.049988,0 -107.633018,39.225331,0 -108.467794,39.103641,0 -108.421837,38.908311,0</coordinates></LinearRing></outerBoundaryIs></Polygon></Placemark>
<Placemark><name>Grand Mesa 093° (09305)</name><description>State: CO | Campaign: grmesa | Line: 09305 | 5 acquisitions: 2020-02-01, 2020-02-12, 2020-02-19, 2020-02-26, 2020-03-12</description><Style><LineStyle><color>ff0000ff</color><width>2</width></LineStyle><PolyStyle><color>7f0000ff</color></PolyStyle></Style><Polygon><outerBoundaryIs><LinearRing><coordinates>-108.366295,38.931781,0 -107.884222,38.912588,0 -107.870772,39.108038,0 -108.354167,39.127283,0 -108.366295,38.931781,0</coordinates></LinearRing></outerBoundaryIs></Polygon></Placemark>
<Placemark><name>Grand Mesa 260° (26006)</name><description>State: CO | Campaign: grmesa | Line: 26006 | 5 acquisitions: 2017-02-06, 2017-02-22, 2017-02-25, 2017-03-08, 2017-03-31</description><Style><LineStyle><color>ff0000ff</color><width>2</width></LineStyle><PolyStyle><color>7f0000ff</color></PolyStyle></Style><Polygon><outerBoundaryIs><LinearRing><coordinates>-108.509798,38.876266,0 -107.669654,38.983942,0 -107.706944,39.155981,0 -108.557805,39.086108,0 -108.509798,38.876266,0</coordinates></LinearRing></outerBoundaryIs></Polygon></Placemark>
<Placemark><name>Grand Mesa 274° (27416)</name><description>State: CO | Campaign: grmesa | Line: 27416 | 12 acquisitions: 2020-02-01, 2020-02-12, 2020-02-19, 2020-02-26, 2020-03-12, 2021-01-27, 2021-02-03, 2021-02-10, 2021-03-03, 2021-03-10, 2021-03-16, 2021-03-22</description><Style><LineStyle><color>ff0000ff</color><width>2</width></LineStyle><PolyStyle><color>7f0000ff</color></PolyStyle></Style><Polygon><outerBoundaryIs><LinearRing><coordinates>-108.377343,38.978978,0 -107.893973,38.95209,0 -107.878208,39.118202,0 -108.36271,39.145153,0 -108.377343,38.978978,0</coordinates></LinearRing></outerBoundaryIs></Polygon></Placemark>
</Folder>
<Folder><name>Idaho 2025 (Boise Mtns/Sawtooths/McCall), ID</name>
<Placemark><name>Idaho 2025 (Boise Mtns/Sawtooths/McCall) 129° (12902)</name><description>State: ID | Campaign: idahos | Line: 12902 | 4 acquisitions: 2025-03-12, 2025-03-13, 2025-03-16, 2025-03-17</description><Style><LineStyle><color>ff00aaff</color><width>2</width></LineStyle><PolyStyle><color>7f00aaff</color></PolyStyle></Style><Polygon><outerBoundaryIs><LinearRing><coordinates>-116.170594,44.80227,0 -116.007906,44.94433,0 -116.598725,45.283166,0 -116.760909,45.140276,0 -116.170594,44.80227,0</coordinates></LinearRing></outerBoundaryIs></Polygon></Placemark>
<Placemark><name>Idaho 2025 (Boise Mtns/Sawtooths/McCall) 143° (14305)</name><description>State: ID | Campaign: idahos | Line: 14305 | 2 acquisitions: 2025-03-12, 2025-03-13</description><Style><LineStyle><color>ff00aaff</color><width>2</width></LineStyle><PolyStyle><color>7f00aaff</color></PolyStyle></Style><Polygon><outerBoundaryIs><LinearRing><coordinates>-114.831565,43.279031,0 -114.619342,43.393007,0 -115.707807,44.450623,0 -115.921708,44.334646,0 -114.831565,43.279031,0</coordinates></LinearRing></outerBoundaryIs></Polygon></Placemark>
<Placemark><name>Idaho 2025 (Boise Mtns/Sawtooths/McCall) 274° (27441)</name><description>State: ID | Campaign: idahos | Line: 27441 | 3 acquisitions: 2025-03-12, 2025-03-13, 2025-03-17</description><Style><LineStyle><color>ff00aaff</color><width>2</width></LineStyle><PolyStyle><color>7f00aaff</color></PolyStyle></Style><Polygon><outerBoundaryIs><LinearRing><coordinates>-115.984863,43.824932,0 -113.593202,43.689742,0 -113.570344,43.868379,0 -115.969136,44.00397,0 -115.984863,43.824932,0</coordinates></LinearRing></outerBoundaryIs></Polygon></Placemark>
</Folder>
<Folder><name>Senator Beck Basin (Ironton), CO</name>
<Placemark><name>Senator Beck Basin (Ironton) 014° (01406)</name><description>State: CO | Campaign: irnton | Line: 01406 | 14 acquisitions: 2020-02-12, 2020-02-19, 2020-02-26, 2020-03-12, 2021-01-15, 2021-01-21, 2021-01-28, 2021-02-04, 2021-02-11, 2021-02-23, 2021-03-03, 2021-03-10, 2021-03-16, 2021-03-22</description><Style><LineStyle><color>ff0000ff</color><width>2</width></LineStyle><PolyStyle><color>7f0000ff</color></PolyStyle></Style><Polygon><outerBoundaryIs><LinearRing><coordinates>-107.912265,37.72871,0 -107.687035,37.684599,0 -107.569555,38.059436,0 -107.795861,38.103765,0 -107.912265,37.72871,0</coordinates></LinearRing></outerBoundaryIs></Polygon></Placemark>
</Folder>
<Folder><name>Boise River Basin (Lowman), ID</name>
<Placemark><name>Boise River Basin (Lowman) 052° (05208)</name><description>State: ID | Campaign: lowman | Line: 05208 | 11 acquisitions: 2019-12-20, 2020-01-31, 2020-02-13, 2020-02-21, 2020-03-11, 2021-02-03, 2021-02-10, 2021-03-03, 2021-03-10, 2021-03-16, 2021-03-22</description><Style><LineStyle><color>ff00aaff</color><width>2</width></LineStyle><PolyStyle><color>7f00aaff</color></PolyStyle></Style><Polygon><outerBoundaryIs><LinearRing><coordinates>-116.321527,43.736253,0 -116.150327,43.581239,0 -114.890918,44.298112,0 -115.060884,44.454982,0 -116.321527,43.736253,0</coordinates></LinearRing></outerBoundaryIs></Polygon></Placemark>
<Placemark><name>Boise River Basin (Lowman) 232° (23205)</name><description>State: ID | Campaign: lowman | Line: 23205 | 15 acquisitions: 2019-12-20, 2020-01-31, 2020-02-13, 2020-02-21, 2020-03-11, 2021-01-15, 2021-01-20, 2021-01-27, 2021-02-03, 2021-02-10, 2021-02-23, 2021-03-03, 2021-03-10, 2021-03-16, 2021-03-22</description><Style><LineStyle><color>ff00aaff</color><width>2</width></LineStyle><PolyStyle><color>7f00aaff</color></PolyStyle></Style><Polygon><outerBoundaryIs><LinearRing><coordinates>-116.36569,43.747932,0 -116.221671,43.614817,0 -114.958254,44.318793,0 -115.101118,44.453484,0 -116.36569,43.747932,0</coordinates></LinearRing></outerBoundaryIs></Polygon></Placemark>
</Folder>
<Folder><name>East River (Peeler Peak), CO</name>
<Placemark><name>East River (Peeler Peak) 137° (13711)</name><description>State: CO | Campaign: peeler | Line: 13711 | 5 acquisitions: 2019-12-20, 2020-02-12, 2020-02-19, 2020-02-26, 2020-03-12</description><Style><LineStyle><color>ff0000ff</color><width>2</width></LineStyle><PolyStyle><color>7f0000ff</color></PolyStyle></Style><Polygon><outerBoundaryIs><LinearRing><coordinates>-106.963354,38.698668,0 -106.789076,38.825339,0 -107.125492,39.107751,0 -107.299863,38.980587,0 -106.963354,38.698668,0</coordinates></LinearRing></outerBoundaryIs></Polygon></Placemark>
<Placemark><name>East River (Peeler Peak) 316° (31619)</name><description>State: CO | Campaign: peeler | Line: 31619 | 5 acquisitions: 2019-12-20, 2020-02-12, 2020-02-19, 2020-02-26, 2020-03-12</description><Style><LineStyle><color>ff0000ff</color><width>2</width></LineStyle><PolyStyle><color>7f0000ff</color></PolyStyle></Style><Polygon><outerBoundaryIs><LinearRing><coordinates>-106.86511,38.783307,0 -106.701685,38.906331,0 -107.045687,39.184452,0 -107.209152,39.06095,0 -106.86511,38.783307,0</coordinates></LinearRing></outerBoundaryIs></Polygon></Placemark>
</Folder>
<Folder><name>Cameron Pass (Rocky Mtn NP), CO</name>
<Placemark><name>Cameron Pass (Rocky Mtn NP) 141° (14107)</name><description>State: CO | Campaign: rockmt | Line: 14107 | 14 acquisitions: 2020-02-01, 2020-02-12, 2020-02-19, 2020-02-26, 2020-03-12, 2021-01-15, 2021-01-20, 2021-01-27, 2021-02-03, 2021-02-23, 2021-03-03, 2021-03-10, 2021-03-16, 2021-03-22</description><Style><LineStyle><color>ff0000ff</color><width>2</width></LineStyle><PolyStyle><color>7f0000ff</color></PolyStyle></Style><Polygon><outerBoundaryIs><LinearRing><coordinates>-105.782486,40.291549,0 -105.585725,40.41288,0 -105.90569,40.715203,0 -106.102759,40.593335,0 -105.782486,40.291549,0</coordinates></LinearRing></outerBoundaryIs></Polygon></Placemark>
<Placemark><name>Cameron Pass (Rocky Mtn NP) 321° (32109)</name><description>State: CO | Campaign: rockmt | Line: 32109 | 8 acquisitions: 2020-02-12, 2020-02-19, 2020-03-12, 2021-01-27, 2021-02-03, 2021-03-03, 2021-03-10, 2021-03-22</description><Style><LineStyle><color>ff0000ff</color><width>2</width></LineStyle><PolyStyle><color>7f0000ff</color></PolyStyle></Style><Polygon><outerBoundaryIs><LinearRing><coordinates>-105.75881,40.255564,0 -105.568507,40.373206,0 -105.892004,40.678406,0 -106.082601,40.560234,0 -105.75881,40.255564,0</coordinates></LinearRing></outerBoundaryIs></Polygon></Placemark>
</Folder>
<Folder><name>Lakes Basin (Sierra NF), CA</name>
<Placemark><name>Lakes Basin (Sierra NF) 173° (17305)</name><description>State: CA | Campaign: sierra | Line: 17305 | 5 acquisitions: 2020-01-31, 2020-02-12, 2020-02-19, 2020-02-26, 2020-03-11</description><Style><LineStyle><color>ffffff00</color><width>2</width></LineStyle><PolyStyle><color>7fffff00</color></PolyStyle></Style><Polygon><outerBoundaryIs><LinearRing><coordinates>-119.021789,37.012654,0 -118.812114,37.032938,0 -118.929302,37.810937,0 -119.141126,37.790451,0 -119.021789,37.012654,0</coordinates></LinearRing></outerBoundaryIs></Polygon></Placemark>
<Placemark><name>Lakes Basin (Sierra NF) 354° (35402)</name><description>State: CA | Campaign: sierra | Line: 35402 | 5 acquisitions: 2020-01-31, 2020-02-12, 2020-02-19, 2020-02-26, 2020-03-11</description><Style><LineStyle><color>ffffff00</color><width>2</width></LineStyle><PolyStyle><color>7fffff00</color></PolyStyle></Style><Polygon><outerBoundaryIs><LinearRing><coordinates>-118.988177,37.062599,0 -118.772816,37.080905,0 -118.876177,37.861823,0 -119.093762,37.843323,0 -118.988177,37.062599,0</coordinates></LinearRing></outerBoundaryIs></Polygon></Placemark>
</Folder>
<Folder><name>Reynolds Creek (Silver City), ID</name>
<Placemark><name>Reynolds Creek (Silver City) 167° (16718)</name><description>State: ID | Campaign: silver | Line: 16718 | 4 acquisitions: 2020-01-31, 2020-02-13, 2020-02-21, 2020-03-11</description><Style><LineStyle><color>ff00aaff</color><width>2</width></LineStyle><PolyStyle><color>7f00aaff</color></PolyStyle></Style><Polygon><outerBoundaryIs><LinearRing><coordinates>-116.863837,42.885468,0 -116.607152,42.928513,0 -116.732541,43.332567,0 -116.990832,43.289245,0 -116.863837,42.885468,0</coordinates></LinearRing></outerBoundaryIs></Polygon></Placemark>
<Placemark><name>Reynolds Creek (Silver City) 347° (34715)</name><description>State: ID | Campaign: silver | Line: 34715 | 4 acquisitions: 2020-01-31, 2020-02-13, 2020-02-21, 2020-03-11</description><Style><LineStyle><color>ff00aaff</color><width>2</width></LineStyle><PolyStyle><color>7f00aaff</color></PolyStyle></Style><Polygon><outerBoundaryIs><LinearRing><coordinates>-116.822105,42.94872,0 -116.575345,42.99076,0 -116.704496,43.399346,0 -116.952815,43.357025,0 -116.822105,42.94872,0</coordinates></LinearRing></outerBoundaryIs></Polygon></Placemark>
</Folder>
<Folder><name>Little Cottonwood Canyon (Salt Lake City), UT</name>
<Placemark><name>Little Cottonwood Canyon (Salt Lake City) 091° (09127)</name><description>State: UT | Campaign: stlake | Line: 09127 | 14 acquisitions: 2020-01-31, 2020-02-13, 2020-02-21, 2020-03-12, 2021-01-15, 2021-01-21, 2021-01-28, 2021-02-03, 2021-02-10, 2021-02-23, 2021-03-03, 2021-03-10, 2021-03-16, 2021-03-22</description><Style><LineStyle><color>ff00ff00</color><width>2</width></LineStyle><PolyStyle><color>7f00ff00</color></PolyStyle></Style><Polygon><outerBoundaryIs><LinearRing><coordinates>-111.956941,40.47135,0 -111.466914,40.465417,0 -111.461977,40.66723,0 -111.953475,40.67318,0 -111.956941,40.47135,0</coordinates></LinearRing></outerBoundaryIs></Polygon></Placemark>
<Placemark><name>Little Cottonwood Canyon (Salt Lake City) 271° (27129)</name><description>State: UT | Campaign: stlake | Line: 27129 | 11 acquisitions: 2020-01-31, 2020-02-13, 2020-02-21, 2020-03-12, 2021-02-03, 2021-02-10, 2021-02-23, 2021-03-03, 2021-03-10, 2021-03-16, 2021-03-22</description><Style><LineStyle><color>ff00ff00</color><width>2</width></LineStyle><PolyStyle><color>7f00ff00</color></PolyStyle></Style><Polygon><outerBoundaryIs><LinearRing><coordinates>-111.897384,40.521278,0 -111.401098,40.514036,0 -111.395821,40.697046,0 -111.893466,40.704307,0 -111.897384,40.521278,0</coordinates></LinearRing></outerBoundaryIs></Polygon></Placemark>
</Folder>
<Folder><name>Senator Beck Basin (Telluride), CO</name>
<Placemark><name>Senator Beck Basin (Telluride) 170° (1701T)</name><description>State: CO | Campaign: tellur | Line: 1701T | 5 acquisitions: 2017-02-06, 2017-02-22, 2017-02-25, 2017-03-08, 2017-03-31</description><Style><LineStyle><color>ff0000ff</color><width>2</width></LineStyle><PolyStyle><color>7f0000ff</color></PolyStyle></Style><Polygon><outerBoundaryIs><LinearRing><coordinates>-107.721158,37.741945,0 -107.500099,37.772485,0 -107.630097,38.341349,0 -107.873425,38.3077,0 -107.721158,37.741945,0</coordinates></LinearRing></outerBoundaryIs></Polygon></Placemark>
<Placemark><name>Senator Beck Basin (Telluride) 350° (3503F)</name><description>State: CO | Campaign: tellur | Line: 3503F | 5 acquisitions: 2017-02-06, 2017-02-22, 2017-02-25, 2017-03-08, 2017-03-31</description><Style><LineStyle><color>ff0000ff</color><width>2</width></LineStyle><PolyStyle><color>7f0000ff</color></PolyStyle></Style><Polygon><outerBoundaryIs><LinearRing><coordinates>-107.746907,37.743888,0 -107.525886,37.774969,0 -107.624742,38.351616,0 -107.872071,38.316864,0 -107.746907,37.743888,0</coordinates></LinearRing></outerBoundaryIs></Polygon></Placemark>
</Folder>
<Folder><name>Tuolumne Meadows (Sierra Nevada), CA</name>
<Placemark><name>Tuolumne Meadows (Sierra Nevada) 101° (10104)</name><description>State: CA | Campaign: tuolum | Line: 10104 | 3 acquisitions: 2016-04-05, 2016-04-06, 2016-04-07</description><Style><LineStyle><color>ffffff00</color><width>2</width></LineStyle><PolyStyle><color>7fffff00</color></PolyStyle></Style><Polygon><outerBoundaryIs><LinearRing><coordinates>-119.168328268,37.795678641,0 -119.12483937,37.971590804,0 -119.639522293,38.046725207,0 -119.685244288,37.856395561,0 -119.168328268,37.795678641,0</coordinates></LinearRing></outerBoundaryIs></Polygon></Placemark>
<Placemark><name>Tuolumne Meadows (Sierra Nevada) 271° (27110)</name><description>State: CA | Campaign: tuolum | Line: 27110 | 3 acquisitions: 2016-04-05, 2016-04-06, 2016-04-07</description><Style><LineStyle><color>ffffff00</color><width>2</width></LineStyle><PolyStyle><color>7fffff00</color></PolyStyle></Style><Polygon><outerBoundaryIs><LinearRing><coordinates>-119.167083933,37.788660658,0 -119.162259556,37.971589295,0 -119.585469265,37.988533206,0 -119.589423684,37.796942097,0 -119.167083933,37.788660658,0</coordinates></LinearRing></outerBoundaryIs></Polygon></Placemark>
<Placemark><name>Tuolumne Meadows (Sierra Nevada) 316° (31610)</name><description>State: CA | Campaign: tuolum | Line: 31610 | 3 acquisitions: 2016-04-05, 2016-04-06, 2016-04-07</description><Style><LineStyle><color>ffffff00</color><width>2</width></LineStyle><PolyStyle><color>7fffff00</color></PolyStyle></Style><Polygon><outerBoundaryIs><LinearRing><coordinates>-119.118857386,37.798167179,0 -119.792942172,38.378388706,0 -119.975751664,38.23835811,0 -119.286940057,37.670292725,0 -119.118857386,37.798167179,0</coordinates></LinearRing></outerBoundaryIs></Polygon></Placemark>
</Folder>
<Folder><name>Central Agricultural Research Center (Utica), MT</name>
<Placemark><name>Central Agricultural Research Center (Utica) 210° (21003)</name><description>State: MT | Campaign: uticam | Line: 21003 | 3 acquisitions: 2021-01-15, 2021-01-20, 2021-02-23</description><Style><LineStyle><color>ffff0000</color><width>2</width></LineStyle><PolyStyle><color>7fff0000</color></PolyStyle></Style><Polygon><outerBoundaryIs><LinearRing><coordinates>-110.555634,46.53271,0 -110.309737,46.434598,0 -109.696029,47.155134,0 -109.944103,47.254561,0 -110.555634,46.53271,0</coordinates></LinearRing></outerBoundaryIs></Polygon></Placemark>
</Folder>
</Document></kml>